SES-6                   
1 39172U 13026A   23079.50674404 -.00000279  00000+0  00000+0 0  9992
2 39172   0.0485 307.7205 0002247  51.8043 320.1571  1.00271744 35846
